ONEWEB-0678             
1 56714U 23068E   23226.25002315 -.00936500  00000+0 -65844+0 0  9995
2 56714  87.2115 107.6690 0009382 302.1744  23.8668 14.01246469 13319
ONEWEB-0679             
1 56715U 23068F   23225.12682771  .00001852  00000+0  25076-3 0  9999
2 56715  86.7216 105.6481 0013080 292.4369  67.5466 14.78387447 13346
ONEWEB-0680             
1 56716U 23068G   23225.08065646  .00001771  00000+0  24182-3 0  9998
2 56716  86.7196 105.6643 0012247 295.8816  64.1141 14.77999545 13331
ONEWEB-0681             
1 56717U 23068H   23225.71205697  .00001828  00000+0  25192-3 0  9996
2 56717  86.7200 105.4388 0010283 296.9918  63.0251 14.77654389 13429
ONEWEB-0682             
1 56718U 23068J   23225.83334491 -.00944435  00000+0 -46566+0 0  9991
2 56718  87.2287 107.5994 0009870 303.7982 189.4955 14.20646801 13304
ONEWEB-0683             
1 56719U 23068K   23226.16667824 -.00730876  00000+0 -41665+0 0  9995
2 56719  87.1947 107.4816 0009494 304.4065 312.8710 14.12578850 13334
ONEWEB-0684             
1 56720U 23068L   23226.16667824 -.00965299  00000+0 -76556+0 0  9993
2 56720  87.2604 107.7826 0011692 310.8859  76.3291 13.94499407 13296
ONEWEB-0686             
1 56721U 23068M   23225.95349019  .00001494  00000+0  20291-3 0  9998
2 56721  86.7192 105.2941 0012756 290.2252  69.7597 14.78101095 13464
